{"type": "FeatureCollection", "features": [ {"type": "Feature", "properties": {"norad_id": 38552, "name": "METEOSAT-10 (MSG-3)", "group": "weather", "lat": 3.1227049093540913, "lon": -166.0867824632614, "alt_km": 35786.12255177883, "timestamp": "2025-12-09T07:41:32.844716+00:00", "meta": {"OBJECT_NAME": "METEOSAT-10 (MSG-3)", "OBJECT_ID": "2012-035B", "EPOCH": "2025-12-08T22:09:52.294752", "MEAN_MOTION": 1.00273781, "ECCENTRICITY": 8.733e-05, "INCLINATION": 4.2201, "RA_OF_ASC_NODE": 61.7306, "ARG_OF_PERICENTER": 238.4203, "MEAN_ANOMALY": 110.3791, "EPHEMERIS_TYPE": 0, "CLASSIFICATION_TYPE": "U", "NORAD_CAT_ID": 38552, "ELEMENT_SET_NO": 999, "REV_AT_EPOCH": 4894, "BSTAR": 0, "MEAN_MOTION_DOT": -5e-08, "MEAN_MOTION_DDOT": 0}, "tle": {"line1": "1 38552U 12035B   25342.92352193 -.00000005  00000+0  00000+0 0  9998", "line2": "2 38552   4.2201  61.7306 0000873 238.4203 110.3791  1.00273781 48943"}}, "geometry": {"type": "Point", "coordinates": [-166.0867824632614, 3.1227049093540913]}}, {"type": "Feature", "properties": {"norad_id": 38771, "name": "METOP-B", "group": "weather", "lat": -60.212037045006994, "lon": -162.14151185957292, "alt_km": 827.7101225072765, "timestamp": "2025-12-09T07:41:32.844727+00:00", "meta": {"OBJECT_NAME": "METOP-B", "OBJECT_ID": "2012-049A", "EPOCH": "2025-12-08T23:48:10.786464", "MEAN_MOTION": 14.21406106, "ECCENTRICITY": 0.00027534, "INCLINATION": 98.6804, "RA_OF_ASC_NODE": 33.014, "ARG_OF_PERICENTER": 152.3576, "MEAN_ANOMALY": 207.7748, "EPHEMERIS_TYPE": 0, "CLASSIFICATION_TYPE": "U", "NORAD_CAT_ID": 38771, "ELEMENT_SET_NO": 999, "REV_AT_EPOCH": 68624, "BSTAR": 0.00011673918, "MEAN_MOTION_DOT": 2.11e-06, "MEAN_MOTION_DDOT": 0}, "tle": {"line1": "1 38771U 12049A   25342.99179151  .00000211  00000+0  11674-3 0  9995", "line2": "2 38771  98.6804  33.0140 0002753 152.3576 207.7748 14.21406106686246"}}, "geometry": {"type": "Point", "coordinates": [-162.14151185957292, -60.212037045006994]}}, {"type": "Feature", "properties": {"norad_id": 39216, "name": "INSAT-3D", "group": "weather", "lat": -1.2289614620329667, "lon": -36.74475261203239, "alt_km": 35784.686734132345, "timestamp": "2025-12-09T07:41:32.844739+00:00", "meta": {"OBJECT_NAME": "INSAT-3D", "OBJECT_ID": "2013-038B", "EPOCH": "2025-12-08T22:46:48.758016", "MEAN_MOTION": 1.00271425, "ECCENTRICITY": 0.0001672, "INCLINATION": 1.4352, "RA_OF_ASC_NODE": 85.0274, "ARG_OF_PERICENTER": 162.1102, "MEAN_ANOMALY": 302.0591, "EPHEMERIS_TYPE": 0, "CLASSIFICATION_TYPE": "U", "NORAD_CAT_ID": 39216, "ELEMENT_SET_NO": 999, "REV_AT_EPOCH": 4517, "BSTAR": 0, "MEAN_MOTION_DOT": -3.37e-06, "MEAN_MOTION_DDOT": 0}, "tle": {"line1": "1 39216U 13038B   25342.94917544 -.00000337  00000+0  00000+0 0  9997", "line2": "2 39216   1.4352  85.0274 0001672 162.1102 302.0591  1.00271425 45172"}}, "geometry": {"type": "Point", "coordinates": [-36.74475261203239, -1.2289614620329667]}}, {"type": "Feature", "properties": {"norad_id": 39260, "name": "FENGYUN 3C", "group": "weather", "lat": -18.465828616571144, "lon": 138.31266294183234, "alt_km": 834.8615603701019, "timestamp": "2025-12-09T07:41:32.844750+00:00", "meta": {"OBJECT_NAME": "FENGYUN 3C", "OBJECT_ID": "2013-052A", "EPOCH": "2025-12-08T22:16:32.812320", "MEAN_MOTION": 14.15694375, "ECCENTRICITY": 0.00140736, "INCLINATION": 98.4759, "RA_OF_ASC_NODE": 320.7937, "ARG_OF_PERICENTER": 207.3713, "MEAN_ANOMALY": 152.6722, "EPHEMERIS_TYPE": 0, "CLASSIFICATION_TYPE": "U", "NORAD_CAT_ID": 39260, "ELEMENT_SET_NO": 999, "REV_AT_EPOCH": 63164, "BSTAR": 0.00011763899, "MEAN_MOTION_DOT": 1.9e-06, "MEAN_MOTION_DDOT": 0}, "tle": {"line1": "1 39260U 13052A   25342.92815755  .00000190  00000+0  11764-3 0  9990", "line2": "2 39260  98.4759 320.7937 0014073 207.3713 152.6722 14.15694375631643"}}, "geometry": {"type": "Point", "coordinates": [138.31266294183234, -18.465828616571144]}}, {"type": "Feature", "properties": {"norad_id": 40069, "name": "METEOR-M 2", "group": "weather", "lat": 68.38283192641745, "lon": 163.17868571456592, "alt_km": 815.2837883413258, "timestamp": "2025-12-09T07:41:32.844762+00:00", "meta": {"OBJECT_NAME": "METEOR-M 2", "OBJECT_ID": "2014-037A", "EPOCH": "2025-12-08T22:43:46.159392", "MEAN_MOTION": 14.21383093, "ECCENTRICITY": 0.00048297, "INCLINATION": 98.4898, "RA_OF_ASC_NODE": 320.6765, "ARG_OF_PERICENTER": 222.5583, "MEAN_ANOMALY": 137.5221, "EPHEMERIS_TYPE": 0, "CLASSIFICATION_TYPE": "U", "NORAD_CAT_ID": 40069, "ELEMENT_SET_NO": 999, "REV_AT_EPOCH": 59229, "BSTAR": 5.846312e-06, "MEAN_MOTION_DOT": -2.9e-07, "MEAN_MOTION_DDOT": 0}, "tle": {"line1": "1 40069U 14037A   25342.94706203 -.00000029  00000+0  58463-5 0  9993", "line2": "2 40069  98.4898 320.6765 0004829 222.5583 137.5221 14.21383093592298"}}, "geometry": {"type": "Point", "coordinates": [163.17868571456592, 68.38283192641745]}}, {"type": "Feature", "properties": {"norad_id": 40267, "name": "HIMAWARI-8", "group": "weather", "lat": 0.01763626807214067, "lon": -25.632309037664, "alt_km": 35782.282727032645, "timestamp": "2025-12-09T07:41:32.844774+00:00", "meta": {"OBJECT_NAME": "HIMAWARI-8", "OBJECT_ID": "2014-060A", "EPOCH": "2025-12-08T22:49:55.959168", "MEAN_MOTION": 1.00270656, "ECCENTRICITY": 0.0001257, "INCLINATION": 0.0331, "RA_OF_ASC_NODE": 221.8407, "ARG_OF_PERICENTER": 74.2923, "MEAN_ANOMALY": 264.9633, "EPHEMERIS_TYPE": 0, "CLASSIFICATION_TYPE": "U", "NORAD_CAT_ID": 40267, "ELEMENT_SET_NO": 999, "REV_AT_EPOCH": 4085, "BSTAR": 0, "MEAN_MOTION_DOT": -2.73e-06, "MEAN_MOTION_DDOT": 0}, "tle": {"line1": "1 40267U 14060A   25342.95134212 -.00000273  00000+0  00000+0 0  9994", "line2": "2 40267   0.0331 221.8407 0001257  74.2923 264.9633  1.00270656 40851"}}, "geometry": {"type": "Point", "coordinates": [-25.632309037664, 0.01763626807214067]}}, {"type": "Feature", "properties": {"norad_id": 40367, "name": "FENGYUN 2G", "group": "weather", "lat": -3.2056600678793954, "lon": -66.78296622939911, "alt_km": 35776.114767088424, "timestamp": "2025-12-09T07:41:32.844785+00:00", "meta": {"OBJECT_NAME": "FENGYUN 2G", "OBJECT_ID": "2014-090A", "EPOCH": "2025-12-08T17:30:10.330272", "MEAN_MOTION": 1.00265504, "ECCENTRICITY": 0.0003085, "INCLINATION": 5.1581, "RA_OF_ASC_NODE": 75.1439, "ARG_OF_PERICENTER": 197.6958, "MEAN_ANOMALY": 167.0613, "EPHEMERIS_TYPE": 0, "CLASSIFICATION_TYPE": "U", "NORAD_CAT_ID": 40367, "ELEMENT_SET_NO": 999, "REV_AT_EPOCH": 4009, "BSTAR": 0, "MEAN_MOTION_DOT": -3e-06, "MEAN_MOTION_DDOT": 0}, "tle": {"line1": "1 40367U 14090A   25342.72928623 -.00000300  00000+0  00000+0 0  9991", "line2": "2 40367   5.1581  75.1439 0003085 197.6958 167.0613  1.00265504 40092"}}, "geometry": {"type": "Point", "coordinates": [-66.78296622939911, -3.2056600678793954]}}, {"type": "Feature", "properties": {"norad_id": 40732, "name": "METEOSAT-11 (MSG-4)", "group": "weather", "lat": 2.0443536266092988, "lon": -156.91727698186708, "alt_km": 35783.27364400866, "timestamp": "2025-12-09T07:41:32.844797+00:00", "meta": {"OBJECT_NAME": "METEOSAT-11 (MSG-4)", "OBJECT_ID": "2015-034A", "EPOCH": "2025-12-08T22:12:29.543616", "MEAN_MOTION": 1.00266305, "ECCENTRICITY": 9.766e-05, "INCLINATION": 2.7258, "RA_OF_ASC_NODE": 72.0129, "ARG_OF_PERICENTER": 121.5314, "MEAN_ANOMALY": 226.8584, "EPHEMERIS_TYPE": 0, "CLASSIFICATION_TYPE": "U", "NORAD_CAT_ID": 40732, "ELEMENT_SET_NO": 999, "REV_AT_EPOCH": 530, "BSTAR": 0, "MEAN_MOTION_DOT": 6.3e-07, "MEAN_MOTION_DDOT": 0}, "tle": {"line1": "1 40732U 15034A   25342.92534194  .00000063  00000+0  00000+0 0  9999", "line2": "2 40732   2.7258  72.0129 0000976 121.5314 226.8584  1.00266305  5308"}}, "geometry": {"type": "Point", "coordinates": [-156.91727698186708, 2.0443536266092988]}}, {"type": "Feature", "properties": {"norad_id": 41105, "name": "ELEKTRO-L 2", "group": "weather", "lat": 5.965475110797942, "lon": 179.24623611778594, "alt_km": 35786.91068215692, "timestamp": "2025-12-09T07:41:32.844809+00:00", "meta": {"OBJECT_NAME": "ELEKTRO-L 2", "OBJECT_ID": "2015-074A", "EPOCH": "2025-12-08T01:32:59.339616", "MEAN_MOTION": 1.00272095, "ECCENTRICITY": 0.00038959, "INCLINATION": 6.2137, "RA_OF_ASC_NODE": 72.8831, "ARG_OF_PERICENTER": 202.1976, "MEAN_ANOMALY": 170.7351, "EPHEMERIS_TYPE": 0, "CLASSIFICATION_TYPE": "U", "NORAD_CAT_ID": 41105, "ELEMENT_SET_NO": 999, "REV_AT_EPOCH": 3659, "BSTAR": 0, "MEAN_MOTION_DOT": -1.16e-06, "MEAN_MOTION_DDOT": 0}, "tle": {"line1": "1 41105U 15074A   25342.06457569 -.00000116  00000+0  00000+0 0  9993", "line2": "2 41105   6.2137  72.8831 0003895 202.1976 170.7351  1.00272095 36596"}}, "geometry": {"type": "Point", "coordinates": [179.24623611778594, 5.965475110797942]}}, {"type": "Feature", "properties": {"norad_id": 41752, "name": "INSAT-3DR", "group": "weather", "lat": -0.022469557789354448, "lon": -92.3034271099348, "alt_km": 35725.036117928226, "timestamp": "2025-12-09T07:41:32.844821+00:00", "meta": {"OBJECT_NAME": "INSAT-3DR", "OBJECT_ID": "2016-054A", "EPOCH": "2025-12-08T22:30:57.774816", "MEAN_MOTION": 1.0027026, "ECCENTRICITY": 0.00145343, "INCLINATION": 0.0828, "RA_OF_ASC_NODE": 86.7116, "ARG_OF_PERICENTER": 183.5132, "MEAN_ANOMALY": 219.4614, "EPHEMERIS_TYPE": 0, "CLASSIFICATION_TYPE": "U", "NORAD_CAT_ID": 41752, "ELEMENT_SET_NO": 999, "REV_AT_EPOCH": 3391, "BSTAR": 0, "MEAN_MOTION_DOT": -7.5e-07, "MEAN_MOTION_DDOT": 0}, "tle": {"line1": "1 41752U 16054A   25342.93816869 -.00000075  00000+0  00000+0 0  9992", "line2": "2 41752   0.0828  86.7116 0014534 183.5132 219.4614  1.00270260 33919"}}, "geometry": {"type": "Point", "coordinates": [-92.3034271099348, -0.022469557789354448]}}]}